{
  "norad_id": 49423,
  "name": "STARLINK-3149",
  "history": [
    {
      "epoch": "2026-03-29T04:38:38.501952Z",
      "apogee_km": 222.85133688476526,
      "perigee_km": 220.12173259079827,
      "latitude_deg": -1.4907364604652652e-05,
      "longitude_deg": -137.1633401948158,
      "height_km": 221.08636372235873,
      "semi_major_axis_km": 6599.6235347377815,
      "eccentricity": 0.0002068,
      "inclination_deg": 53.2077,
      "raan_deg": 119.1002,
      "arg_perigee_deg": 11.1209,
      "mean_anomaly_deg": 348.9876,
      "mean_motion_rev_day": 16.19287704
    }
  ]
}