{"fetched_at":"2026-03-29T16:36:15Z","count":15609,"tles":[{"name":"STARLINK-3149","line1":"1 49423U 21104R   26088.19350118  .01874005  38901-2  10777-2 0  9994","line2":"2 49423  53.2077 119.1002 0002068  11.1209 348.9876 16.19287704241885","category":"Starlink"}]}